{"fetched_at":"2026-07-15T17:47:12.281Z","source":"https://celestrak.org/NORAD/elements/gp.php?NAME=HAWK&FORMAT=JSON","constellation":"hawkeye-360","records":[{"OBJECT_NAME":"HAWK-A","OBJECT_ID":"2018-099H","EPOCH":"2026-07-15T02:34:20.955072","CLASSIFICATION_TYPE":"U","MEAN_MOTION":15.24964443,"ECCENTRICITY":0.0034714,"INCLINATION":97.3897,"RA_OF_ASC_NODE":247.9822,"ARG_OF_PERICENTER":184.2471,"MEAN_ANOMALY":175.8478,"EPHEMERIS_TYPE":0,"NORAD_CAT_ID":43765,"ELEMENT_SET_NO":999,"REV_AT_EPOCH":41735,"BSTAR":0.00016247,"MEAN_MOTION_DOT":0.00004044,"MEAN_MOTION_DDOT":0},{"OBJECT_NAME":"HAWK-B","OBJECT_ID":"2018-099AN","EPOCH":"2026-07-15T02:19:02.176608","CLASSIFICATION_TYPE":"U","MEAN_MOTION":15.23114243,"ECCENTRICITY":0.0031352,"INCLINATION":97.3948,"RA_OF_ASC_NODE":247.3278,"ARG_OF_PERICENTER":202.4031,"MEAN_ANOMALY":157.5838,"EPHEMERIS_TYPE":0,"NORAD_CAT_ID":43794,"ELEMENT_SET_NO":999,"REV_AT_EPOCH":41728,"BSTAR":0.0001486,"MEAN_MOTION_DOT":0.0000348,"MEAN_MOTION_DDOT":0},{"OBJECT_NAME":"HAWK-C","OBJECT_ID":"2018-099AT","EPOCH":"2026-07-15T03:37:20.750304","CLASSIFICATION_TYPE":"U","MEAN_MOTION":15.28490158,"ECCENTRICITY":0.0040292,"INCLINATION":97.3874,"RA_OF_ASC_NODE":249.0766,"ARG_OF_PERICENTER":183.9581,"MEAN_ANOMALY":176.1346,"EPHEMERIS_TYPE":0,"NORAD_CAT_ID":43799,"ELEMENT_SET_NO":999,"REV_AT_EPOCH":41818,"BSTAR":0.00017523,"MEAN_MOTION_DOT":0.00004898,"MEAN_MOTION_DDOT":0},{"OBJECT_NAME":"HAWK-2C","OBJECT_ID":"2021-006CT","EPOCH":"2026-07-15T04:28:42.994272","CLASSIFICATION_TYPE":"U","MEAN_MOTION":15.34988981,"ECCENTRICITY":0.0008659,"INCLINATION":97.2265,"RA_OF_ASC_NODE":239.9414,"ARG_OF_PERICENTER":100.8071,"MEAN_ANOMALY":259.4148,"EPHEMERIS_TYPE":0,"NORAD_CAT_ID":47502,"ELEMENT_SET_NO":999,"REV_AT_EPOCH":30379,"BSTAR":0.00011192,"MEAN_MOTION_DOT":0.00003724,"MEAN_MOTION_DDOT":0},{"OBJECT_NAME":"HAWK-2A","OBJECT_ID":"2021-006CW","EPOCH":"2026-07-15T02:58:02.775072","CLASSIFICATION_TYPE":"U","MEAN_MOTION":15.35005662,"ECCENTRICITY":0.0008168,"INCLINATION":97.2308,"RA_OF_ASC_NODE":240.5736,"ARG_OF_PERICENTER":104.3316,"MEAN_ANOMALY":255.8835,"EPHEMERIS_TYPE":0,"NORAD_CAT_ID":47505,"ELEMENT_SET_NO":999,"REV_AT_EPOCH":30378,"BSTAR":0.00013119,"MEAN_MOTION_DOT":0.0000438,"MEAN_MOTION_DDOT":0},{"OBJECT_NAME":"HAWK-2B","OBJECT_ID":"2021-006CZ","EPOCH":"2026-07-15T02:48:43.704864","CLASSIFICATION_TYPE":"U","MEAN_MOTION":15.35135482,"ECCENTRICITY":0.0008746,"INCLINATION":97.2176,"RA_OF_ASC_NODE":238.8553,"ARG_OF_PERICENTER":102.7915,"MEAN_ANOMALY":257.4307,"EPHEMERIS_TYPE":0,"NORAD_CAT_ID":47508,"ELEMENT_SET_NO":999,"REV_AT_EPOCH":30378,"BSTAR":0.00013049,"MEAN_MOTION_DOT":0.00004376,"MEAN_MOTION_DDOT":0},{"OBJECT_NAME":"HAWK-3B","OBJECT_ID":"2021-059BE","EPOCH":"2026-07-15T02:24:19.439136","CLASSIFICATION_TYPE":"U","MEAN_MOTION":15.71859941,"ECCENTRICITY":0.0004459,"INCLINATION":97.663,"RA_OF_ASC_NODE":35.4965,"ARG_OF_PERICENTER":198.1592,"MEAN_ANOMALY":161.9512,"EPHEMERIS_TYPE":0,"NORAD_CAT_ID":48931,"ELEMENT_SET_NO":999,"REV_AT_EPOCH":28223,"BSTAR":0.00024625,"MEAN_MOTION_DOT":0.00031875,"MEAN_MOTION_DDOT":0},{"OBJECT_NAME":"HAWK-3C","OBJECT_ID":"2021-059BX","EPOCH":"2026-07-15T02:23:52.071936","CLASSIFICATION_TYPE":"U","MEAN_MOTION":15.71859687,"ECCENTRICITY":0.0004624,"INCLINATION":97.6743,"RA_OF_ASC_NODE":41.2297,"ARG_OF_PERICENTER":198.7902,"MEAN_ANOMALY":161.3191,"EPHEMERIS_TYPE":0,"NORAD_CAT_ID":48948,"ELEMENT_SET_NO":999,"REV_AT_EPOCH":28223,"BSTAR":0.00023286,"MEAN_MOTION_DOT":0.0003013,"MEAN_MOTION_DDOT":0},{"OBJECT_NAME":"HAWK-3A","OBJECT_ID":"2021-059CG","EPOCH":"2026-07-15T02:23:42.384768","CLASSIFICATION_TYPE":"U","MEAN_MOTION":15.71861573,"ECCENTRICITY":0.0004588,"INCLINATION":97.6688,"RA_OF_ASC_NODE":38.4121,"ARG_OF_PERICENTER":200.858,"MEAN_ANOMALY":159.2496,"EPHEMERIS_TYPE":0,"NORAD_CAT_ID":48957,"ELEMENT_SET_NO":999,"REV_AT_EPOCH":28223,"BSTAR":0.00024931,"MEAN_MOTION_DOT":0.00032277,"MEAN_MOTION_DDOT":0},{"OBJECT_NAME":"HAWK-5C","OBJECT_ID":"2022-057Y","EPOCH":"2026-07-15T03:46:47.072928","CLASSIFICATION_TYPE":"U","MEAN_MOTION":15.52324324,"ECCENTRICITY":0.0002807,"INCLINATION":97.6613,"RA_OF_ASC_NODE":357.6523,"ARG_OF_PERICENTER":346.7516,"MEAN_ANOMALY":13.3662,"EPHEMERIS_TYPE":0,"NORAD_CAT_ID":52754,"ELEMENT_SET_NO":999,"REV_AT_EPOCH":23068,"BSTAR":0.00018024,"MEAN_MOTION_DOT":0.00010867,"MEAN_MOTION_DDOT":0},{"OBJECT_NAME":"HAWK-5B","OBJECT_ID":"2022-057AA","EPOCH":"2026-07-15T03:46:31.173600","CLASSIFICATION_TYPE":"U","MEAN_MOTION":15.52321159,"ECCENTRICITY":0.0003484,"INCLINATION":97.6627,"RA_OF_ASC_NODE":356.0058,"ARG_OF_PERICENTER":332.1861,"MEAN_ANOMALY":27.9204,"EPHEMERIS_TYPE":0,"NORAD_CAT_ID":52756,"ELEMENT_SET_NO":999,"REV_AT_EPOCH":23068,"BSTAR":0.00017824,"MEAN_MOTION_DOT":0.00010744,"MEAN_MOTION_DDOT":0},{"OBJECT_NAME":"HAWK-5A","OBJECT_ID":"2022-057AB","EPOCH":"2026-07-14T23:07:45.682752","CLASSIFICATION_TYPE":"U","MEAN_MOTION":15.52318484,"ECCENTRICITY":0.0003374,"INCLINATION":97.662,"RA_OF_ASC_NODE":356.6297,"ARG_OF_PERICENTER":338.7634,"MEAN_ANOMALY":21.3477,"EPHEMERIS_TYPE":0,"NORAD_CAT_ID":52757,"ELEMENT_SET_NO":999,"REV_AT_EPOCH":23065,"BSTAR":0.00017848,"MEAN_MOTION_DOT":0.00010758,"MEAN_MOTION_DDOT":0},{"OBJECT_NAME":"HAWK-6B","OBJECT_ID":"2023-011A","EPOCH":"2026-07-15T04:21:56.756160","CLASSIFICATION_TYPE":"U","MEAN_MOTION":15.23153117,"ECCENTRICITY":0.0004203,"INCLINATION":40.497,"RA_OF_ASC_NODE":188.7567,"ARG_OF_PERICENTER":240.4077,"MEAN_ANOMALY":119.6314,"EPHEMERIS_TYPE":0,"NORAD_CAT_ID":55324,"ELEMENT_SET_NO":999,"REV_AT_EPOCH":19211,"BSTAR":0.00011008,"MEAN_MOTION_DOT":0.0000246,"MEAN_MOTION_DDOT":0},{"OBJECT_NAME":"HAWK-6C","OBJECT_ID":"2023-011C","EPOCH":"2026-07-15T04:21:02.212704","CLASSIFICATION_TYPE":"U","MEAN_MOTION":15.23154648,"ECCENTRICITY":0.00047,"INCLINATION":40.4961,"RA_OF_ASC_NODE":185.5963,"ARG_OF_PERICENTER":233.4857,"MEAN_ANOMALY":126.552,"EPHEMERIS_TYPE":0,"NORAD_CAT_ID":55326,"ELEMENT_SET_NO":999,"REV_AT_EPOCH":19212,"BSTAR":0.00010294,"MEAN_MOTION_DOT":0.00002287,"MEAN_MOTION_DDOT":0},{"OBJECT_NAME":"HAWK-6A","OBJECT_ID":"2023-011D","EPOCH":"2026-07-15T04:21:05.436288","CLASSIFICATION_TYPE":"U","MEAN_MOTION":15.23154209,"ECCENTRICITY":0.0004263,"INCLINATION":40.497,"RA_OF_ASC_NODE":187.223,"ARG_OF_PERICENTER":230.8343,"MEAN_ANOMALY":129.2088,"EPHEMERIS_TYPE":0,"NORAD_CAT_ID":55327,"ELEMENT_SET_NO":999,"REV_AT_EPOCH":19212,"BSTAR":0.0001073,"MEAN_MOTION_DOT":0.00002392,"MEAN_MOTION_DDOT":0},{"OBJECT_NAME":"HAWK-7A","OBJECT_ID":"2023-054P","EPOCH":"2026-07-15T03:33:12.023712","CLASSIFICATION_TYPE":"U","MEAN_MOTION":15.2763192,"ECCENTRICITY":0.0001406,"INCLINATION":97.2664,"RA_OF_ASC_NODE":82.7746,"ARG_OF_PERICENTER":333.8791,"MEAN_ANOMALY":26.2378,"EPHEMERIS_TYPE":0,"NORAD_CAT_ID":56191,"ELEMENT_SET_NO":999,"REV_AT_EPOCH":18129,"BSTAR":0.00011393,"MEAN_MOTION_DOT":0.00003005,"MEAN_MOTION_DDOT":0}]}
